{"type": "FeatureCollection", "features": [ {"type": "Feature", "properties": {"norad_id": 34819, "name": "COSMOS 2251 DEB", "group": "cosmos-2251-debris", "lat": -10.72304444690366, "lon": -30.630894869944434, "alt_km": 677.1518032672875, "timestamp": "2025-12-10T20:49:52.947839+00:00", "meta": {"OBJECT_NAME": "COSMOS 2251 DEB", "OBJECT_ID": "1993-036ABJ", "EPOCH": "2025-12-09T21:41:51.224640", "MEAN_MOTION": 14.63892789, "ECCENTRICITY": 0.00157861, "INCLINATION": 74.0186, "RA_OF_ASC_NODE": 148.1101, "ARG_OF_PERICENTER": 242.0271, "MEAN_ANOMALY": 271.3932, "EPHEMERIS_TYPE": 0, "CLASSIFICATION_TYPE": "U", "NORAD_CAT_ID": 34819, "ELEMENT_SET_NO": 999, "REV_AT_EPOCH": 88187, "BSTAR": 0.0022468866, "MEAN_MOTION_DOT": 0.00011759, "MEAN_MOTION_DDOT": 0}, "tle": {"line1": "1 34819U 93036ABJ 25343.90406510  .00011759  00000+0  22469-2 0  9995", "line2": "2 34819  74.0186 148.1101 0015786 242.0271 271.3932 14.63892789881870"}}, "geometry": {"type": "Point", "coordinates": [-30.630894869944434, -10.72304444690366]}}, {"type": "Feature", "properties": {"norad_id": 34823, "name": "COSMOS 2251 DEB", "group": "cosmos-2251-debris", "lat": -55.70791513762599, "lon": 81.01367960669313, "alt_km": 751.9789692333215, "timestamp": "2025-12-10T20:49:52.947849+00:00", "meta": {"OBJECT_NAME": "COSMOS 2251 DEB", "OBJECT_ID": "1993-036ABN", "EPOCH": "2025-12-10T14:30:29.359008", "MEAN_MOTION": 14.54904355, "ECCENTRICITY": 0.01548874, "INCLINATION": 74.0414, "RA_OF_ASC_NODE": 106.322, "ARG_OF_PERICENTER": 191.6219, "MEAN_ANOMALY": 168.1356, "EPHEMERIS_TYPE": 0, "CLASSIFICATION_TYPE": "U", "NORAD_CAT_ID": 34823, "ELEMENT_SET_NO": 999, "REV_AT_EPOCH": 88350, "BSTAR": 0.0013618052, "MEAN_MOTION_DOT": 6.85e-05, "MEAN_MOTION_DDOT": 0}, "tle": {"line1": "1 34823U 93036ABN 25344.60450647  .00006850  00000+0  13618-2 0  9990", "line2": "2 34823  74.0414 106.3220 0154887 191.6219 168.1356 14.54904355883502"}}, "geometry": {"type": "Point", "coordinates": [81.01367960669313, -55.70791513762599]}}, {"type": "Feature", "properties": {"norad_id": 34845, "name": "COSMOS 2251 DEB", "group": "cosmos-2251-debris", "lat": -30.33165287949422, "lon": 142.19462095187424, "alt_km": 729.5577781298871, "timestamp": "2025-12-10T20:49:52.947859+00:00", "meta": {"OBJECT_NAME": "COSMOS 2251 DEB", "OBJECT_ID": "1993-036ABP", "EPOCH": "2025-12-09T20:04:05.418048", "MEAN_MOTION": 14.45850049, "ECCENTRICITY": 0.00222586, "INCLINATION": 74.0237, "RA_OF_ASC_NODE": 153.7694, "ARG_OF_PERICENTER": 315.2139, "MEAN_ANOMALY": 44.7222, "EPHEMERIS_TYPE": 0, "CLASSIFICATION_TYPE": "U", "NORAD_CAT_ID": 34845, "ELEMENT_SET_NO": 999, "REV_AT_EPOCH": 87424, "BSTAR": 0.00046671234, "MEAN_MOTION_DOT": 1.636e-05, "MEAN_MOTION_DDOT": 0}, "tle": {"line1": "1 34845U 93036ABP 25343.83617382  .00001636  00000+0  46671-3 0  9992", "line2": "2 34845  74.0237 153.7694 0022258 315.2139  44.7222 14.45850049874243"}}, "geometry": {"type": "Point", "coordinates": [142.19462095187424, -30.33165287949422]}}, {"type": "Feature", "properties": {"norad_id": 34846, "name": "COSMOS 2251 DEB", "group": "cosmos-2251-debris", "lat": -70.22142331716395, "lon": 138.05513706053839, "alt_km": 736.4994571794732, "timestamp": "2025-12-10T20:49:52.947868+00:00", "meta": {"OBJECT_NAME": "COSMOS 2251 DEB", "OBJECT_ID": "1993-036ABQ", "EPOCH": "2025-12-09T22:04:20.854848", "MEAN_MOTION": 14.47185616, "ECCENTRICITY": 0.00260534, "INCLINATION": 74.0307, "RA_OF_ASC_NODE": 267.0486, "ARG_OF_PERICENTER": 333.8398, "MEAN_ANOMALY": 26.1442, "EPHEMERIS_TYPE": 0, "CLASSIFICATION_TYPE": "U", "NORAD_CAT_ID": 34846, "ELEMENT_SET_NO": 999, "REV_AT_EPOCH": 87363, "BSTAR": 0.0013251291, "MEAN_MOTION_DOT": 4.835e-05, "MEAN_MOTION_DDOT": 0}, "tle": {"line1": "1 34846U 93036ABQ 25343.91968582  .00004835  00000+0  13251-2 0  9994", "line2": "2 34846  74.0307 267.0486 0026053 333.8398  26.1442 14.47185616873633"}}, "geometry": {"type": "Point", "coordinates": [138.05513706053839, -70.22142331716395]}}, {"type": "Feature", "properties": {"norad_id": 34852, "name": "COSMOS 2251 DEB", "group": "cosmos-2251-debris", "lat": 31.75596280124049, "lon": -83.3777695531571, "alt_km": 755.7264618676963, "timestamp": "2025-12-10T20:49:52.947878+00:00", "meta": {"OBJECT_NAME": "COSMOS 2251 DEB", "OBJECT_ID": "1993-036ABW", "EPOCH": "2025-12-09T12:55:56.817120", "MEAN_MOTION": 14.37001055, "ECCENTRICITY": 0.0016022, "INCLINATION": 74.0329, "RA_OF_ASC_NODE": 268.8581, "ARG_OF_PERICENTER": 12.6756, "MEAN_ANOMALY": 347.4797, "EPHEMERIS_TYPE": 0, "CLASSIFICATION_TYPE": "U", "NORAD_CAT_ID": 34852, "ELEMENT_SET_NO": 999, "REV_AT_EPOCH": 87488, "BSTAR": 0.00021796, "MEAN_MOTION_DOT": 6.21e-06, "MEAN_MOTION_DDOT": 0}, "tle": {"line1": "1 34852U 93036ABW 25343.53885205  .00000621  00000+0  21796-3 0  9992", "line2": "2 34852  74.0329 268.8581 0016022  12.6756 347.4797 14.37001055874887"}}, "geometry": {"type": "Point", "coordinates": [-83.3777695531571, 31.75596280124049]}}, {"type": "Feature", "properties": {"norad_id": 34854, "name": "COSMOS 2251 DEB", "group": "cosmos-2251-debris", "lat": 29.48640402307462, "lon": 171.57176829197306, "alt_km": 658.8904389848667, "timestamp": "2025-12-10T20:49:52.947888+00:00", "meta": {"OBJECT_NAME": "COSMOS 2251 DEB", "OBJECT_ID": "1993-036ABY", "EPOCH": "2025-12-10T04:25:53.682240", "MEAN_MOTION": 14.76585117, "ECCENTRICITY": 0.0066172, "INCLINATION": 74.0287, "RA_OF_ASC_NODE": 163.5908, "ARG_OF_PERICENTER": 275.7691, "MEAN_ANOMALY": 83.5942, "EPHEMERIS_TYPE": 0, "CLASSIFICATION_TYPE": "U", "NORAD_CAT_ID": 34854, "ELEMENT_SET_NO": 999, "REV_AT_EPOCH": 71844, "BSTAR": 0.00096088, "MEAN_MOTION_DOT": 6.925e-05, "MEAN_MOTION_DDOT": 0}, "tle": {"line1": "1 34854U 93036ABY 25344.18464910  .00006925  00000+0  96088-3 0  9991", "line2": "2 34854  74.0287 163.5908 0066172 275.7691  83.5942 14.76585117718445"}}, "geometry": {"type": "Point", "coordinates": [171.57176829197306, 29.48640402307462]}}, {"type": "Feature", "properties": {"norad_id": 34856, "name": "COSMOS 2251 DEB", "group": "cosmos-2251-debris", "lat": -73.6035175007866, "lon": -14.0332745522384, "alt_km": 538.2008978470349, "timestamp": "2025-12-10T20:49:52.947897+00:00", "meta": {"OBJECT_NAME": "COSMOS 2251 DEB", "OBJECT_ID": "1993-036ACA", "EPOCH": "2025-12-10T13:20:08.985120", "MEAN_MOTION": 15.05866818, "ECCENTRICITY": 0.00330733, "INCLINATION": 73.9963, "RA_OF_ASC_NODE": 89.3417, "ARG_OF_PERICENTER": 226.8669, "MEAN_ANOMALY": 146.927, "EPHEMERIS_TYPE": 0, "CLASSIFICATION_TYPE": "U", "NORAD_CAT_ID": 34856, "ELEMENT_SET_NO": 999, "REV_AT_EPOCH": 89079, "BSTAR": 0.0030572712, "MEAN_MOTION_DOT": 0.00045205, "MEAN_MOTION_DDOT": 0}, "tle": {"line1": "1 34856U 93036ACA 25344.55565955  .00045205  00000+0  30573-2 0  9995", "line2": "2 34856  73.9963  89.3417 0033073 226.8669 146.9270 15.05866818890792"}}, "geometry": {"type": "Point", "coordinates": [-14.0332745522384, -73.6035175007866]}}, {"type": "Feature", "properties": {"norad_id": 34857, "name": "COSMOS 2251 DEB", "group": "cosmos-2251-debris", "lat": -50.36423614647994, "lon": -49.35423551170536, "alt_km": 656.8020360601813, "timestamp": "2025-12-10T20:49:52.947907+00:00", "meta": {"OBJECT_NAME": "COSMOS 2251 DEB", "OBJECT_ID": "1993-036ACB", "EPOCH": "2025-12-10T10:09:42.100416", "MEAN_MOTION": 14.5885085, "ECCENTRICITY": 0.00659222, "INCLINATION": 74.0153, "RA_OF_ASC_NODE": 111.2471, "ARG_OF_PERICENTER": 236.0948, "MEAN_ANOMALY": 183.224, "EPHEMERIS_TYPE": 0, "CLASSIFICATION_TYPE": "U", "NORAD_CAT_ID": 34857, "ELEMENT_SET_NO": 999, "REV_AT_EPOCH": 87867, "BSTAR": 0.001891387, "MEAN_MOTION_DOT": 9.104e-05, "MEAN_MOTION_DDOT": 0}, "tle": {"line1": "1 34857U 93036ACB 25344.42340394  .00009104  00000+0  18914-2 0  9993", "line2": "2 34857  74.0153 111.2471 0065922 236.0948 183.2240 14.58850850878672"}}, "geometry": {"type": "Point", "coordinates": [-49.35423551170536, -50.36423614647994]}}, {"type": "Feature", "properties": {"norad_id": 34859, "name": "COSMOS 2251 DEB", "group": "cosmos-2251-debris", "lat": 8.576763487806655, "lon": 161.07712011737397, "alt_km": 526.5681685122936, "timestamp": "2025-12-10T20:49:52.947917+00:00", "meta": {"OBJECT_NAME": "COSMOS 2251 DEB", "OBJECT_ID": "1993-036ACD", "EPOCH": "2025-12-10T11:07:51.238272", "MEAN_MOTION": 15.14113317, "ECCENTRICITY": 0.00026179, "INCLINATION": 74.0303, "RA_OF_ASC_NODE": 344.3921, "ARG_OF_PERICENTER": 331.4032, "MEAN_ANOMALY": 157.2972, "EPHEMERIS_TYPE": 0, "CLASSIFICATION_TYPE": "U", "NORAD_CAT_ID": 34859, "ELEMENT_SET_NO": 999, "REV_AT_EPOCH": 88324, "BSTAR": 0.0072409322, "MEAN_MOTION_DOT": 0.00134384, "MEAN_MOTION_DDOT": 0}, "tle": {"line1": "1 34859U 93036ACD 25344.46378748  .00134384  00000+0  72409-2 0  9991", "line2": "2 34859  74.0303 344.3921 0002617 331.4032 157.2972 15.14113317883241"}}, "geometry": {"type": "Point", "coordinates": [161.07712011737397, 8.576763487806655]}}, {"type": "Feature", "properties": {"norad_id": 34861, "name": "COSMOS 2251 DEB", "group": "cosmos-2251-debris", "lat": 20.39377081185642, "lon": -131.44144452279127, "alt_km": 560.4788352856785, "timestamp": "2025-12-10T20:49:52.947927+00:00", "meta": {"OBJECT_NAME": "COSMOS 2251 DEB", "OBJECT_ID": "1993-036ACF", "EPOCH": "2025-12-10T05:59:36.099168", "MEAN_MOTION": 15.02321054, "ECCENTRICITY": 0.0006722, "INCLINATION": 74.0188, "RA_OF_ASC_NODE": 55.9366, "ARG_OF_PERICENTER": 54.9215, "MEAN_ANOMALY": 1.2852, "EPHEMERIS_TYPE": 0, "CLASSIFICATION_TYPE": "U", "NORAD_CAT_ID": 34861, "ELEMENT_SET_NO": 999, "REV_AT_EPOCH": 88055, "BSTAR": 0.003625, "MEAN_MOTION_DOT": 0.00048237, "MEAN_MOTION_DDOT": 0}, "tle": {"line1": "1 34861U 93036ACF 25344.24972337  .00048237  00000+0  36250-2 0  9999", "line2": "2 34861  74.0188  55.9366 0006722  54.9215   1.2852 15.02321054880556"}}, "geometry": {"type": "Point", "coordinates": [-131.44144452279127, 20.39377081185642]}}]}